{"type":"FeatureCollection","features":[{"type":"Feature","geometry":{"type":"Point","coordinates":[105.698,21]},"properties":{"name":"Hà Nội","level":"province","code":"01","province":"Hà Nội"}},{"type":"Feature","geometry":{"type":"Point","coordinates":[106.083,22.746]},"properties":{"name":"Cao Bằng","level":"province","code":"04","province":"Cao Bằng"}},{"type":"Feature","geometry":{"type":"Point","coordinates":[105.099,22.49]},"properties":{"name":"Tuyên Quang","level":"province","code":"08","province":"Tuyên Quang"}},{"type":"Feature","geometry":{"type":"Point","coordinates":[103.232,21.477]},"properties":{"name":"Điện Biên","level":"province","code":"11","province":"Điện Biên"}},{"type":"Feature","geometry":{"type":"Point","coordinates":[103.185,22.318]},"properties":{"name":"Lai Châu","level":"province","code":"12","province":"Lai Châu"}},{"type":"Feature","geometry":{"type":"Point","coordinates":[104.069,21.195]},"properties":{"name":"Sơn La","level":"province","code":"14","province":"Sơn La"}},{"type":"Feature","geometry":{"type":"Point","coordinates":[104.347,22.061]},"properties":{"name":"Lào Cai","level":"province","code":"15","province":"Lào Cai"}},{"type":"Feature","geometry":{"type":"Point","coordinates":[105.824,22.024]},"properties":{"name":"Thái Nguyên","level":"province","code":"19","province":"Thái Nguyên"}},{"type":"Feature","geometry":{"type":"Point","coordinates":[106.728,21.774]},"properties":{"name":"Lạng Sơn","level":"province","code":"20","province":"Lạng Sơn"}},{"type":"Feature","geometry":{"type":"Point","coordinates":[107.223,21.264]},"properties":{"name":"Quảng Ninh","level":"province","code":"22","province":"Quảng Ninh"}},{"type":"Feature","geometry":{"type":"Point","coordinates":[106.167,21.243]},"properties":{"name":"Bắc Ninh","level":"province","code":"24","province":"Bắc Ninh"}},{"type":"Feature","geometry":{"type":"Point","coordinates":[105.333,20.707]},"properties":{"name":"Phú Thọ","level":"province","code":"25","province":"Phú Thọ"}},{"type":"Feature","geometry":{"type":"Point","coordinates":[106.47,20.876]},"properties":{"name":"Hải Phòng","level":"province","code":"31","province":"Hải Phòng"}},{"type":"Feature","geometry":{"type":"Point","coordinates":[106.463,20.453]},"properties":{"name":"Hưng Yên","level":"province","code":"33","province":"Hưng Yên"}},{"type":"Feature","geometry":{"type":"Point","coordinates":[106.046,20.312]},"properties":{"name":"Ninh Bình","level":"province","code":"37","province":"Ninh Bình"}},{"type":"Feature","geometry":{"type":"Point","coordinates":[105.317,20.047]},"properties":{"name":"Thanh Hóa","level":"province","code":"38","province":"Thanh Hóa"}},{"type":"Feature","geometry":{"type":"Point","coordinates":[104.944,19.237]},"properties":{"name":"Nghệ An","level":"province","code":"40","province":"Nghệ An"}},{"type":"Feature","geometry":{"type":"Point","coordinates":[105.735,18.291]},"properties":{"name":"Hà Tĩnh","level":"province","code":"42","province":"Hà Tĩnh"}},{"type":"Feature","geometry":{"type":"Point","coordinates":[106.527,17.241]},"properties":{"name":"Quảng Trị","level":"province","code":"44","province":"Quảng Trị"}},{"type":"Feature","geometry":{"type":"Point","coordinates":[107.517,16.332]},"properties":{"name":"Huế","level":"province","code":"46","province":"Huế"}},{"type":"Feature","geometry":{"type":"Point","coordinates":[107.966,15.631]},"properties":{"name":"Đà Nẵng","level":"province","code":"48","province":"Đà Nẵng"}},{"type":"Feature","geometry":{"type":"Point","coordinates":[108.143,14.769]},"properties":{"name":"Quảng Ngãi","level":"province","code":"51","province":"Quảng Ngãi"}},{"type":"Feature","geometry":{"type":"Point","coordinates":[108.438,13.89]},"properties":{"name":"Gia Lai","level":"province","code":"52","province":"Gia Lai"}},{"type":"Feature","geometry":{"type":"Point","coordinates":[108.961,12.069]},"properties":{"name":"Khánh Hòa","level":"province","code":"56","province":"Khánh Hòa"}},{"type":"Feature","geometry":{"type":"Point","coordinates":[108.47,12.707]},"properties":{"name":"Đắk Lắk","level":"province","code":"66","province":"Đắk Lắk"}},{"type":"Feature","geometry":{"type":"Point","coordinates":[107.968,11.674]},"properties":{"name":"Lâm Đồng","level":"province","code":"68","province":"Lâm Đồng"}},{"type":"Feature","geometry":{"type":"Point","coordinates":[107.034,11.437]},"properties":{"name":"Đồng Nai","level":"province","code":"75","province":"Đồng Nai"}},{"type":"Feature","geometry":{"type":"Point","coordinates":[106.638,10.993]},"properties":{"name":"Hồ Chí Minh","level":"province","code":"79","province":"Hồ Chí Minh"}},{"type":"Feature","geometry":{"type":"Point","coordinates":[106.123,10.694]},"properties":{"name":"Tây Ninh","level":"province","code":"80","province":"Tây Ninh"}},{"type":"Feature","geometry":{"type":"Point","coordinates":[105.999,10.429]},"properties":{"name":"Đồng Tháp","level":"province","code":"82","province":"Đồng Tháp"}},{"type":"Feature","geometry":{"type":"Point","coordinates":[106.292,9.995]},"properties":{"name":"Vĩnh Long","level":"province","code":"86","province":"Vĩnh Long"}},{"type":"Feature","geometry":{"type":"Point","coordinates":[105.096,10.179]},"properties":{"name":"An Giang","level":"province","code":"91","province":"An Giang"}},{"type":"Feature","geometry":{"type":"Point","coordinates":[105.757,9.744]},"properties":{"name":"Cần Thơ","level":"province","code":"92","province":"Cần Thơ"}},{"type":"Feature","geometry":{"type":"Point","coordinates":[105.182,9.136]},"properties":{"name":"Cà Mau","level":"province","code":"96","province":"Cà Mau"}}]}