{"type":"FeatureCollection","features":[{"type":"Feature","geometry":{"type":"Point","coordinates":[106.675,20.8589]},"properties":{"name":"Hải Phòng","level":"province","old":true}},{"type":"Feature","geometry":{"type":"Point","coordinates":[106.1061,22.7427]},"properties":{"name":"Cao Bằng","level":"province","old":true}},{"type":"Feature","geometry":{"type":"Point","coordinates":[105.087,9.018]},"properties":{"name":"Cà Mau","level":"province","old":true}},{"type":"Feature","geometry":{"type":"Point","coordinates":[105.5099,9.3298]},"properties":{"name":"Bạc Liêu","level":"province","old":true}},{"type":"Feature","geometry":{"type":"Point","coordinates":[105.9494,9.5628]},"properties":{"name":"Sóc Trăng","level":"province","old":true}},{"type":"Feature","geometry":{"type":"Point","coordinates":[106.3257,9.8038]},"properties":{"name":"Trà Vinh","level":"province","old":true}},{"type":"Feature","geometry":{"type":"Point","coordinates":[105.638,9.7985]},"properties":{"name":"Hậu Giang","level":"province","old":true}},{"type":"Feature","geometry":{"type":"Point","coordinates":[105.58,10.12]},"properties":{"name":"Cần Thơ","level":"province","old":true}},{"type":"Feature","geometry":{"type":"Point","coordinates":[105.2435,9.9905]},"properties":{"name":"Kiên Giang","level":"province","old":true}},{"type":"Feature","geometry":{"type":"Point","coordinates":[105.2313,10.5392]},"properties":{"name":"An Giang","level":"province","old":true}},{"type":"Feature","geometry":{"type":"Point","coordinates":[105.6802,10.5904]},"properties":{"name":"Đồng Tháp","level":"province","old":true}},{"type":"Feature","geometry":{"type":"Point","coordinates":[106.0126,10.1203]},"properties":{"name":"Vĩnh Long","level":"province","old":true}},{"type":"Feature","geometry":{"type":"Point","coordinates":[106.4812,10.1094]},"properties":{"name":"Bến Tre","level":"province","old":true}},{"type":"Feature","geometry":{"type":"Point","coordinates":[106.3616,10.403]},"properties":{"name":"Tiền Giang","level":"province","old":true}},{"type":"Feature","geometry":{"type":"Point","coordinates":[106.1884,10.6984]},"properties":{"name":"Long An","level":"province","old":true}},{"type":"Feature","geometry":{"type":"Point","coordinates":[107.9324,14.6995]},"properties":{"name":"Kon Tum","level":"province","old":true}},{"type":"Feature","geometry":{"type":"Point","coordinates":[108.2004,13.8177]},"properties":{"name":"Gia Lai","level":"province","old":true}},{"type":"Feature","geometry":{"type":"Point","coordinates":[108.2999,12.8292]},"properties":{"name":"Đắk Lắk","level":"province","old":true}},{"type":"Feature","geometry":{"type":"Point","coordinates":[107.7302,12.2819]},"properties":{"name":"Đắk Nông","level":"province","old":true}},{"type":"Feature","geometry":{"type":"Point","coordinates":[108.1335,11.6615]},"properties":{"name":"Lâm Đồng","level":"province","old":true}},{"type":"Feature","geometry":{"type":"Point","coordinates":[108.8928,11.6966]},"properties":{"name":"Ninh Thuận","level":"province","old":true}},{"type":"Feature","geometry":{"type":"Point","coordinates":[108.995,12.2981]},"properties":{"name":"Khánh Hòa","level":"province","old":true}},{"type":"Feature","geometry":{"type":"Point","coordinates":[109.1274,13.1913]},"properties":{"name":"Phú Yên","level":"province","old":true}},{"type":"Feature","geometry":{"type":"Point","coordinates":[108.9899,14.0779]},"properties":{"name":"Bình Định","level":"province","old":true}},{"type":"Feature","geometry":{"type":"Point","coordinates":[108.6917,14.9954]},"properties":{"name":"Quảng Ngãi","level":"province","old":true}},{"type":"Feature","geometry":{"type":"Point","coordinates":[108.0527,15.5762]},"properties":{"name":"Quảng Nam","level":"province","old":true}},{"type":"Feature","geometry":{"type":"Point","coordinates":[108.212,16.068]},"properties":{"name":"Đà Nẵng","level":"province","old":true}},{"type":"Feature","geometry":{"type":"Point","coordinates":[107.5863,16.4639]},"properties":{"name":"Huế","level":"province","old":true}},{"type":"Feature","geometry":{"type":"Point","coordinates":[106.9797,16.7898]},"properties":{"name":"Quảng Trị","level":"province","old":true}},{"type":"Feature","geometry":{"type":"Point","coordinates":[106.4004,17.5096]},"properties":{"name":"Quảng Bình","level":"province","old":true}},{"type":"Feature","geometry":{"type":"Point","coordinates":[105.7623,18.3505]},"properties":{"name":"Hà Tĩnh","level":"province","old":true}},{"type":"Feature","geometry":{"type":"Point","coordinates":[105.0607,19.1976]},"properties":{"name":"Nghệ An","level":"province","old":true}},{"type":"Feature","geometry":{"type":"Point","coordinates":[105.4816,19.9782]},"properties":{"name":"Thanh Hóa","level":"province","old":true}},{"type":"Feature","geometry":{"type":"Point","coordinates":[106.9266,11.7543]},"properties":{"name":"Bình Phước","level":"province","old":true}},{"type":"Feature","geometry":{"type":"Point","coordinates":[106.1627,11.4019]},"properties":{"name":"Tây Ninh","level":"province","old":true}},{"type":"Feature","geometry":{"type":"Point","coordinates":[105.9281,20.2051]},"properties":{"name":"Ninh Bình","level":"province","old":true}},{"type":"Feature","geometry":{"type":"Point","coordinates":[106.2289,20.2686]},"properties":{"name":"Nam Định","level":"province","old":true}},{"type":"Feature","geometry":{"type":"Point","coordinates":[105.9928,20.5398]},"properties":{"name":"Hà Nam","level":"province","old":true}},{"type":"Feature","geometry":{"type":"Point","coordinates":[106.3876,20.5297]},"properties":{"name":"Thái Bình","level":"province","old":true}},{"type":"Feature","geometry":{"type":"Point","coordinates":[106.0699,20.7834]},"properties":{"name":"Hưng Yên","level":"province","old":true}},{"type":"Feature","geometry":{"type":"Point","coordinates":[106.3725,20.8931]},"properties":{"name":"Hải Dương","level":"province","old":true}},{"type":"Feature","geometry":{"type":"Point","coordinates":[106.1265,21.0956]},"properties":{"name":"Bắc Ninh","level":"province","old":true}},{"type":"Feature","geometry":{"type":"Point","coordinates":[105.5758,21.3779]},"properties":{"name":"Vĩnh Phúc","level":"province","old":true}},{"type":"Feature","geometry":{"type":"Point","coordinates":[105.135,21.3008]},"properties":{"name":"Phú Thọ","level":"province","old":true}},{"type":"Feature","geometry":{"type":"Point","coordinates":[106.438,21.317]},"properties":{"name":"Bắc Giang","level":"province","old":true}},{"type":"Feature","geometry":{"type":"Point","coordinates":[107.2013,21.1718]},"properties":{"name":"Quảng Ninh","level":"province","old":true}},{"type":"Feature","geometry":{"type":"Point","coordinates":[105.8351,21.6499]},"properties":{"name":"Thái Nguyên","level":"province","old":true}},{"type":"Feature","geometry":{"type":"Point","coordinates":[105.376,20.6763]},"properties":{"name":"Hòa Bình","level":"province","old":true}},{"type":"Feature","geometry":{"type":"Point","coordinates":[104.6631,21.8269]},"properties":{"name":"Yên Bái","level":"province","old":true}},{"type":"Feature","geometry":{"type":"Point","coordinates":[104.1576,21.2277]},"properties":{"name":"Sơn La","level":"province","old":true}},{"type":"Feature","geometry":{"type":"Point","coordinates":[103.1799,22.2922]},"properties":{"name":"Lai Châu","level":"province","old":true}},{"type":"Feature","geometry":{"type":"Point","coordinates":[103.2169,21.6547]},"properties":{"name":"Điện Biên","level":"province","old":true}},{"type":"Feature","geometry":{"type":"Point","coordinates":[104.183,22.3069]},"properties":{"name":"Lào Cai","level":"province","old":true}},{"type":"Feature","geometry":{"type":"Point","coordinates":[105.2584,22.0748]},"properties":{"name":"Tuyên Quang","level":"province","old":true}},{"type":"Feature","geometry":{"type":"Point","coordinates":[105.8204,22.2572]},"properties":{"name":"Bắc Kạn","level":"province","old":true}},{"type":"Feature","geometry":{"type":"Point","coordinates":[105.0027,22.7336]},"properties":{"name":"Hà Giang","level":"province","old":true}},{"type":"Feature","geometry":{"type":"Point","coordinates":[105.854,21.0283]},"properties":{"name":"Hà Nội","level":"province","old":true}},{"type":"Feature","geometry":{"type":"Point","coordinates":[108.1833,11.1042]},"properties":{"name":"Bình Thuận","level":"province","old":true}},{"type":"Feature","geometry":{"type":"Point","coordinates":[107.3284,10.5739]},"properties":{"name":"Bà Rịa - Vũng Tàu","level":"province","old":true}},{"type":"Feature","geometry":{"type":"Point","coordinates":[107.1881,11.0356]},"properties":{"name":"Đồng Nai","level":"province","old":true}},{"type":"Feature","geometry":{"type":"Point","coordinates":[106.7032,11.1837]},"properties":{"name":"Bình Dương","level":"province","old":true}},{"type":"Feature","geometry":{"type":"Point","coordinates":[106.7011,10.7764]},"properties":{"name":"Hồ Chí Minh","level":"province","old":true}},{"type":"Feature","geometry":{"type":"Point","coordinates":[106.6141,21.8488]},"properties":{"name":"Lạng Sơn","level":"province","old":true}}]}